NORAD_CAT_ID,OBJECT_NAME,OBJECT_TYPE,EPOCH,MEAN_MOTION,ECCENTRICITY,INCLINATION,RA_OF_ASC_NODE,ARG_OF_PERICENTER,MEAN_ANOMALY,BSTAR,MEAN_MOTION_DOT,MEAN_MOTION_DDOT,TLE_LINE0,TLE_LINE1,TLE_LINE2,SEMIMAJOR_AXIS,PERIOD,APOGEE,PERIGEE,DECAYED
49152.0,STARLINK-3081,PAYLOAD,2022-01-25 06:00:00,15.69741001,0.0003767,69.9993,112.6409,292.0789,134.4241,0.00023751,0.00028228,0.0,0 STARLINK-3081,1 49152U 21082Y   22025.25001157  .00028228  00000-0  23751-3 0  9999,2 49152  69.9993 112.6409 0003767 292.0789 134.4241 15.69741001 22121,6737.775,91.735,362.17800000000005,357.102,0.0
49152.0,STARLINK-3081,PAYLOAD,2022-01-25 14:00:01,15.69739035,0.0003953,69.9996,111.7039,297.3683,212.2687,0.00043467,0.00051983,0.0,0 STARLINK-3081,1 49152U 21082Y   22025.58334491  .00051983  00000-0  43467-3 0  9995,2 49152  69.9996 111.7039 0003953 297.3683 212.2687 15.69739035  3673,6737.781,91.735,362.309,356.982,0.0
49152.0,STARLINK-3081,PAYLOAD,2022-01-25 22:00:00,15.6982002,0.0003906,69.9993,110.7669,295.3359,297.4413,-0.00089467,-0.00106001,0.0,0 STARLINK-3081,1 49152U 21082Y   22025.91667824 -.00106001  00000-0 -89467-3 0  9995,2 49152  69.9993 110.7669 0003906 295.3359 297.4413 15.69820020  3705,6737.549,91.73,362.046,356.782,0.0
49152.0,STARLINK-3081,PAYLOAD,2022-01-26 06:00:00,15.69646702,0.0003977,70.0001,109.8352,294.0294,21.7264,0.0013844,0.00167702,0.0,0 STARLINK-3081,1 49152U 21082Y   22026.25001157  .00167702  00000-0  13844-2 0  9992,2 49152  70.0001 109.8352 0003977 294.0294  21.7264 15.69646702 22287,6738.045,91.74,362.59,357.23,0.0
49152.0,STARLINK-3081,PAYLOAD,2022-01-26 14:00:01,15.69768085,0.0004125,69.9995,108.8932,297.4873,101.5561,8.6362e-06,8.19e-06,0.0,0 STARLINK-3081,1 49152U 21082Y   22026.58334491  .00000819  00000-0  86362-5 0  9991,2 49152  69.9995 108.8932 0004125 297.4873 101.5561 15.69768085 22337,6737.698,91.733,362.342,356.783,0.0
49152.0,STARLINK-3081,PAYLOAD,2022-01-26 22:00:00,15.69746394,0.0003979,69.9991,107.956,295.8204,186.375,-0.00031515,-0.00037666,0.0,0 STARLINK-3081,1 49152U 21082Y   22026.91667824 -.00037666  00000-0 -31515-3 0  9997,2 49152  69.9991 107.9560 0003979 295.8204 186.3750 15.69746394  3683,6737.76,91.735,362.306,356.944,0.0
49152.0,STARLINK-3081,PAYLOAD,2022-01-27 04:00:00,15.69718474,0.0003839,69.9994,107.2534,292.6206,161.9104,0.00061115,0.00073297,0.0,0 STARLINK-3081,1 49152U 21082Y   22027.16667824  .00073297  00000-0  61115-3 0  9992,2 49152  69.9994 107.2534 0003839 292.6206 161.9104 15.69718474 22425,6737.84,91.736,362.291,357.11800000000005,0.0
49152.0,STARLINK-3081,PAYLOAD,2022-01-27 12:46:31,15.69750086,0.0003736,69.9992,106.2254,292.6852,67.3948,2.4489e-06,8e-07,0.0,0 STARLINK-3081,1 49152U 21082Y   22027.53230439  .00000080  00000-0  24489-5 0  9996,2 49152  69.9992 106.2254 0003736 292.6852  67.3948 15.69750086 22479,6737.749,91.734,362.131,357.097,0.0
49152.0,STARLINK-3081,PAYLOAD,2022-01-27 22:00:00,15.69719436,0.0004092,69.9998,105.1452,294.6735,76.8735,-1.1349e-05,-1.566e-05,0.0,0 STARLINK-3081,1 49152U 21082Y   22027.91667824 -.00001566  00000-0 -11349-4 0  9992,2 49152  69.9998 105.1452 0004092 294.6735  76.8735 15.69719436 22542,6737.837,91.736,362.459,356.945,0.0
49152.0,STARLINK-3081,PAYLOAD,2022-01-28 04:00:00,15.69720308,0.0004033,70.0,104.4429,292.3540000000001,51.5158,0.00056533,0.00067749,0.0,0 STARLINK-3081,1 49152U 21082Y   22028.16667824  .00067749  00000-0  56533-3 0  9996,2 49152  70.0000 104.4429 0004033 292.3540  51.5158 15.69720308 22582,6737.834,91.736,362.417,356.982,0.0
49152.0,STARLINK-3081,PAYLOAD,2022-01-28 10:00:00,15.69760646,0.0004169,70.0,103.7402,294.9086,21.2947,-7.1038e-05,-8.690000000000001e-05,0.0,0 STARLINK-3081,1 49152U 21082Y   22028.41667824 -.00008690  00000-0 -71038-4 0  9994,2 49152  70.0000 103.7402 0004169 294.9086  21.2947 15.69760646 22622,6737.719,91.734,362.393,356.775,0.0
49152.0,STARLINK-3081,PAYLOAD,2022-01-28 14:00:01,15.69739649,0.0004228,69.9999,103.2717,297.7753,240.0015,0.00042812,0.00051196,0.0,0 STARLINK-3081,1 49152U 21082Y   22028.58334491  .00051196  00000-0  42812-3 0  9997,2 49152  69.9999 103.2717 0004228 297.7753 240.0015 15.69739649  3689,6737.779,91.735,362.49300000000005,356.795,0.0
49152.0,STARLINK-3081,PAYLOAD,2022-01-28 22:00:00,15.69775106,0.0004022,69.9997,102.3346,296.1684,324.7572,-0.00061534,-0.00073123,0.0,0 STARLINK-3081,1 49152U 21082Y   22028.91667824 -.00073123  00000-0 -61534-3 0  9991,2 49152  69.9997 102.3346 0004022 296.1684 324.7572 15.69775106  3678,6737.677,91.733,362.252,356.833,0.0
49152.0,STARLINK-3081,PAYLOAD,2022-01-29 14:00:01,15.6976284,0.0004163,70.0001,100.4606,298.7131,128.4699,-3.7493e-05,-4.689e-05,0.0,0 STARLINK-3081,1 49152U 21082Y   22029.58334491 -.00004689  00000-0 -37493-4 0  9995,2 49152  70.0001 100.4606 0004163 298.7131 128.4699 15.69762840 22802,6737.7130000000025,91.734,362.382,356.773,0.0
49152.0,STARLINK-3081,PAYLOAD,2022-01-29 22:00:00,15.69738445,0.000419,69.9999,99.5238,295.5554,214.7873,-1.3656e-05,-1.842e-05,0.0,0 STARLINK-3081,1 49152U 21082Y   22029.91667824 -.00001842  00000-0 -13656-4 0  9994,2 49152  69.9999  99.5238 0004190 295.5554 214.7873 15.69738445  3691,6737.781999999997,91.735,362.47,356.824,0.0
49152.0,STARLINK-3081,PAYLOAD,2022-01-30 14:00:01,15.69768641,0.0004251,69.9999,97.6502,298.6851,17.9214,-0.00036896,-0.00044072,0.0,0 STARLINK-3081,1 49152U 21082Y   22030.58334491 -.00044072  00000-0 -36896-3 0  9992,2 49152  69.9999  97.6502 0004251 298.6851  17.9214 15.69768641  3699,6737.696,91.733,362.425,356.69699999999995,0.0
49152.0,STARLINK-3081,PAYLOAD,2022-01-30 20:00:01,15.69779671,0.0004167,69.9994,96.9475,296.7364,352.2244,-0.00097128,-0.00114758,0.0,0 STARLINK-3081,1 49152U 21082Y   22030.83334491 -.00114758  00000-0 -97128-3 0  9994,2 49152  69.9994  96.9475 0004167 296.7364 352.2244 15.69779671 23009,6737.6640000000025,91.733,362.337,356.722,0.0
49152.0,STARLINK-3081,PAYLOAD,2022-01-30 22:00:00,15.69742125,0.0004145,69.9996,96.713,295.0057,104.7462,-0.00052253,-0.00062124,0.0,0 STARLINK-3081,1 49152U 21082Y   22030.91667824 -.00062124  00000-0 -52253-3 0  9991,2 49152  69.9996  96.7130 0004145 295.0057 104.7462 15.69742125  3693,6737.772,91.735,362.43,356.844,0.0
49152.0,STARLINK-3081,PAYLOAD,2022-01-31 06:00:00,15.69714149,0.0004239,69.9997,95.776,292.8613,189.96400000000003,-2.3143e-05,-2.971e-05,0.0,0 STARLINK-3081,1 49152U 21082Y   22031.25001157 -.00002971  00000-0 -23143-4 0  9991,2 49152  69.9997  95.7760 0004239 292.8613 189.9640 15.69714149 23060,6737.852,91.736,362.573,356.861,0.0
49152.0,STARLINK-3081,PAYLOAD,2022-01-31 14:00:01,15.69693217,0.0004388,69.9996,94.8389,298.2311,267.7504,0.00066971,0.00080334,0.0,0 STARLINK-3081,1 49152U 21082Y   22031.58335648  .00080334  00000-0  66971-3 0  9994,2 49152  69.9996  94.8389 0004388 298.2311 267.7504 15.69693217  3688,6737.9119999999975,91.738,362.733,356.82,0.0
49152.0,STARLINK-3081,PAYLOAD,2022-01-31 22:00:01,15.69733953,0.0004196,69.9994,93.9021,295.7465,353.3408,0.00035925,0.00042873,0.0,0 STARLINK-3081,1 49152U 21082Y   22031.91668981  .00042873  00000-0  35925-3 0  9991,2 49152  69.9994  93.9021 0004196 295.7465 353.3408 15.69733953 23171,6737.795,91.735,362.487,356.833,0.0
49152.0,STARLINK-3081,PAYLOAD,2022-02-01 14:00:01,15.69783469,0.0004325,69.9994,92.0281,298.9964,156.3856,-0.00027758,-0.00033272,0.0,0 STARLINK-3081,1 49152U 21082Y   22032.58335648 -.00033272  00000-0 -27758-3 0  9996,2 49152  69.9994  92.0281 0004325 298.9964 156.3856 15.69783469  3681,6737.654,91.732,362.4330000000001,356.60400000000016,0.0
49152.0,STARLINK-3081,PAYLOAD,2022-02-01 22:00:00,15.69748438,0.0004148,69.999,91.091,295.4739,243.0083,-0.00037421,-0.00044654,0.0,0 STARLINK-3081,1 49152U 21082Y   22032.91667824 -.00044654  00000-0 -37421-3 0  9991,2 49152  69.9990  91.0910 0004148 295.4739 243.0083 15.69748438 23326,6737.754,91.734,362.414,356.824,0.0
49152.0,STARLINK-3081,PAYLOAD,2022-02-02 14:00:01,15.69687192,0.0004399,69.9988,89.2168,298.7653,45.8905,0.00062372,0.00074734,0.0,0 STARLINK-3081,1 49152U 21082Y   22033.58334491  .00074734  00000-0  62372-3 0  9999,2 49152  69.9988  89.2168 0004399 298.7653  45.8905 15.69687192  3694,6737.929,91.738,362.758,356.83,0.0
49152.0,STARLINK-3081,PAYLOAD,2022-02-02 22:00:00,15.69708297,0.0004236,69.9988,88.2797,294.7568,132.9965,0.0005402,0.00064675,0.0,0 STARLINK-3081,1 49152U 21082Y   22033.91667824  .00064675  00000-0  54020-3 0  9999,2 49152  69.9988  88.2797 0004236 294.7568 132.9965 15.69708297 23485,6737.869000000002,91.737,362.588,356.879,0.0
49152.0,STARLINK-3081,PAYLOAD,2022-02-03 14:00:01,15.69774358,0.0004383,69.9988,86.4056,298.7184,295.2934,-0.00027711,-0.00033205,0.0,0 STARLINK-3081,1 49152U 21082Y   22034.58334491 -.00033205  00000-0 -27711-3 0  9998,2 49152  69.9988  86.4056 0004383 298.7184 295.2934 15.69774358 23585,6737.68,91.733,362.49800000000016,356.591,0.0
49152.0,STARLINK-3081,PAYLOAD,2022-02-03 22:00:01,15.69727121,0.0004082,69.9985,85.4683,295.4606,21.7927,0.00065285,0.00078393,0.0,0 STARLINK-3081,1 49152U 21082Y   22034.91668981  .00078393  00000-0  65285-3 0  9992,2 49152  69.9985  85.4683 0004082 295.4606  21.7927 15.69727121  3696,6737.815,91.736,362.43,356.92900000000014,0.0
49152.0,STARLINK-3081,PAYLOAD,2022-02-04 06:00:00,15.69827084,0.0004126,69.9986,84.5314,295.1373,105.194,-6.8079e-05,-8.359e-05,0.0,0 STARLINK-3081,1 49152U 21082Y   22035.25001157 -.00008359  00000-0 -68079-4 0  9998,2 49152  69.9986  84.5314 0004126 295.1373 105.1940 15.69827084 23698,6737.529,91.73,362.174,356.61400000000015,0.0
49152.0,STARLINK-3081,PAYLOAD,2022-02-04 12:00:00,15.69816882,0.0004189,69.9986,83.8284,299.9523,72.77,-0.00035825,-0.00042889,0.0,0 STARLINK-3081,1 49152U 21082Y   22035.50001157 -.00042889  00000-0 -35825-3 0  9994,2 49152  69.9986  83.8284 0004189 299.9523  72.7700 15.69816882 23736,6737.558000000001,91.73,362.245,356.601,0.0
